MOLNIYA 2-9             
1 07276U 74026A   20133.16757106 -.00000060  00000-0  17432-2 0  9999
2 07276  64.0246 346.1037 6808784 288.1693  12.5673  2.45094331230570
MOLNIYA 2-10            
1 07376U 74056A   20134.24994248  .00001207  00000-0  00000+0 0  9996
2 07376  63.5459 172.0396 6736009 292.6340  11.9446  2.01161824335014
MOLNIYA 1-S             
1 07392U 74060A   20133.77223084 -.00000044  00000-0  00000+0 0  9998
2 07392   6.9659 293.9968 0008701 177.9952 107.1416  1.00199661111837
MOLNIYA 1-29            
1 07780U 75036A   20133.54881440 -.00000268  00000-0 -45687-3 0  9997
2 07780  62.9483 316.9639 7383810 288.0775   9.2270  2.00630959330280
MOLNIYA 2-14            
1 08195U 75081A   20130.67191778  .00000962  00000-0 -19327-2 0  9998
2 08195  63.0699 284.2917 7299609 292.8623   8.7167  2.02051695327411
MOLNIYA 1-32            
1 08601U 76006A   20131.10758348 -.00000603  00000-0  39466-3 0  9998
2 08601  62.6525  56.0733 7404742 278.6599  11.3854  2.00089288323637
MOLNIYA 1-36            
1 09880U 77021A   20133.63283639 -.00001736  00000-0  65236-4 0  9995
2 09880  62.4730  27.1478 7484723 284.1771   9.6007  2.00598165214097
MOLNIYA 3-8             
1 10455U 77105A   20133.92451824 -.00001172  00000-0 -31459-2 0  9996
2 10455  62.3157 115.8544 7253681 276.1938  13.0346  2.00713871311783
MOLNIYA 1-40            
1 10925U 78055A   20133.08728136 -.00000090  00000-0 -38229-1 0  9992
2 10925  62.5213 151.4476 7048103 278.0540  13.9337  2.00719939307337
MOLNIYA 3-10            
1 11057U 78095A   20133.60358284  .00000331  00000-0  10428-3 0  9993
2 11057  62.7960 330.7136 5956772 297.9948  14.7116  4.09639879352351
MOLNIYA 3-13            
1 11896U 80063A   20131.32171602 -.00000009  00000-0  39435-2 0  9997
2 11896  62.5899 234.1349 7171006 275.4770  13.8792  2.00662002291736
MOLNIYA 1-49            
1 12156U 81009A   20133.55266490  .00000385  00000-0  34848-2 0  9994
2 12156  62.1381 279.1598 7228755 252.1001  22.7517  2.05703192205769
MOLNIYA 1-52            
1 13012U 81123A   20132.84461764  .00001182  00000-0  00000+0 0  9991
2 13012  63.5020  32.4913 7245778 248.5520  24.4981  2.00539531281268
MOLNIYA 1-53            
1 13070U 82015A   20133.53588628 -.00000845  00000-0  15071-3 0  9996
2 13070  62.3246 326.4218 7470214 275.6424  11.5556  2.00374559279889
MOLNIYA 3-20            
1 13875U 83015A   20133.45061906  .00001350  00000-0  38866-1 0  9992
2 13875  63.5418 105.0590 7135042 255.5771 318.5912  2.00714936208334
MOLNIYA 1-56            
1 13890U 83019A   20133.80427451 -.00000502  00000-0  00000+0 0  9999
2 13890  63.2327 129.9625 7111961 260.4374  19.0339  1.99955080271306
MOLNIYA 1-62            
1 15214U 84089A   20130.90640966 -.00001201  00000-0 -63428-2 0  9999
2 15214  62.7235 138.2980 7267420 264.6708  16.6611  1.97951286229048
MOLNIYA 1-63            
1 15429U 84124A   20133.38591899  .00000607  00000-0  00000+0 0  9993
2 15429  63.6944 239.0402 6605020 266.6260  31.2087  2.00342952259433
MOLNIYA 3-24            
1 15738U 85040A   20133.33097556  .00000083  00000-0 -13449-1 0  9992
2 15738  63.8539 211.2468 6468093 252.3426 141.5765  2.55630205284320
MOLNIYA 3-27            
1 16393U 85117A   20133.21865169  .00000124  00000-0  00000+0 0  9997
2 16393  64.6563 168.9451 6533709 257.3736  27.2926  2.12400177257921
MOLNIYA 1-69            
1 17078U 86089A   20133.57406322  .00001064  00000-0  89955-1 0  9990
2 17078  64.1422 259.9720 6724087 266.3602  22.4590  2.00782171245468
MOLNIYA 3-31            
1 17328U 87008A   20134.25727398  .00000165  00000-0  00000+0 0  9998
2 17328  63.8292 209.0290 6695327 260.8372  23.7385  2.00662015240546
MOLNIYA 1-71            
1 18946U 88017A   20133.28746848 -.00000073  00000-0 -61230-1 0  9993
2 18946  63.5130 209.9427 6822823 261.4674  52.3805  2.00581160235727
MOLNIYA 1-75            
1 19807U 89014A   20133.87631290  .00001094  00000-0  15042-1 0  9999
2 19807  64.3310  15.8225 7052269 271.5467  15.9187  2.00401316228729
MOLNIYA 1-80            
1 21118U 91012A   20133.21045840 -.00000389  00000-0  00000+0 0  9999
2 21118  64.3234  60.5950 6862513 286.3309  12.8479  2.05241536215270
MOLNIYA 3-40            
1 21196U 91022A   20132.86277183 -.00000172  00000-0  00000+0 0  9993
2 21196  64.4990  53.6170 6899476 283.2940  13.4482  2.03024875214091
MOLNIYA 1-81            
1 21426U 91043A   20132.89671429 -.00000023  00000-0  00000-0 0  9992
2 21426  64.0054  80.2390 6988338 272.1343  16.2969  2.00627063211783
MOLNIYA 3-41            
1 21706U 91065A   20133.76526337  .00001116  00000-0  61355-1 0  9995
2 21706  64.1850 245.7938 6771037 264.9200 157.8820  2.04342128211285
MOLNIYA 3-42            
1 22178U 92067A   20130.40537163 -.00000080  00000-0  00000-0 0  9998
2 22178  64.7291 304.3503 6756576 278.0141  15.9064  2.20432277 63221
MOLNIYA 1-86            
1 22671U 93035A   20133.82851330 -.00000022  00000-0  19939-4 0  9997
2 22671  63.1670 319.4916 4828490 356.1914   1.1706  5.62602610309173
MOLNIYA 1-87            
1 22949U 93079A   20131.07661769 -.00000950  00000-0  00000+0 0  9997
2 22949  63.3918 176.6349 6836788 289.1924  12.2642  2.02871465193695
MOLNIYA 1-88            
1 23420U 94081A   20133.56263141 -.00000055  00000-0 -57434-3 0  9998
2 23420  64.1104  13.7126 6026733 294.4373  15.5044  3.34492996 88080
MOLNIYA 3-47            
1 23642U 95042A   20134.25530638  .00001366  00000-0 -71039-2 0  9998
2 23642  63.2388 159.7873 6826450 288.4667  12.4758  2.01951175181650
MOLNIYA 1-90            
1 24960U 97054A   20133.13730402 -.00000049  00000-0  83275-4 0  9998
2 24960  63.4504 347.4283 6379327 300.6745  11.6883  3.18684308183581
MOLNIYA 1-91            
1 25485U 98054A   20133.90730903 -.00000091  00000-0  72741-4 0  9996
2 25485  62.8105 279.0881 7118514 288.8078  10.6225  2.36439933160286
MOLNIYA 3-50            
1 25847U 99036A   20132.95521818  .00000246  00000-0 -15290-2 0  9992
2 25847  62.2885  97.4088 7343769 275.1982  12.6927  2.00666023152749
